NORAD_CAT_ID,OBJECT_NAME,OBJECT_TYPE,EPOCH,MEAN_MOTION,ECCENTRICITY,INCLINATION,RA_OF_ASC_NODE,ARG_OF_PERICENTER,MEAN_ANOMALY,BSTAR,MEAN_MOTION_DOT,MEAN_MOTION_DDOT,TLE_LINE0,TLE_LINE1,TLE_LINE2,SEMIMAJOR_AXIS,PERIOD,APOGEE,PERIGEE,DECAYED
52281.0,STARLINK-3779,PAYLOAD,2024-07-09 01:24:25,15.08854014,0.0001097,53.2179,321.3724,95.2166,264.8952,0.00035339,5.343e-05,0.0,0 STARLINK-3779,1 52281U 22041W   24191.05862498  .00005343  00000-0  35339-3 0  9997,2 52281  53.2179 321.3724 0001097  95.2166 264.8952 15.08854014123700,6917.838,95.437,540.461,538.944,0.0
52281.0,STARLINK-3779,PAYLOAD,2024-07-09 12:32:07,15.08834667,0.0001441,53.2188,319.2904,99.4356,260.6799,-5.5396e-05,-1.169e-05,0.0,0 STARLINK-3779,1 52281U 22041W   24191.52231290 -.00001169  00000-0 -55396-4 0  9999,2 52281  53.2188 319.2904 0001441  99.4356 260.6799 15.08834667123778,6917.897,95.438,540.759,538.765,0.0
52281.0,STARLINK-3779,PAYLOAD,2024-07-09 14:07:30,15.08835813,0.0001445,53.2187,318.9932,99.5103,260.6053,-2.4545e-05,-6.79e-06,0.0,0 STARLINK-3779,1 52281U 22041W   24191.58855276 -.00000679  00000-0 -24545-4 0  9998,2 52281  53.2187 318.9932 0001445  99.5103 260.6053 15.08835813122562,6917.893,95.438,540.758,538.759,0.0
52281.0,STARLINK-3779,PAYLOAD,2024-07-09 15:42:53,15.08839878,0.0001352,53.2189,318.697,94.967,265.1476,6.9282e-05,8.15e-06,0.0,0 STARLINK-3779,1 52281U 22041W   24191.65479164  .00000815  00000-0  69282-4 0  9991,2 52281  53.2189 318.6970 0001352  94.9670 265.1476 15.08839878122573,6917.881,95.438,540.681,538.81,0.0
52281.0,STARLINK-3779,PAYLOAD,2024-07-10 01:15:12,15.08849208,0.0001347,53.2186,316.9132,89.021,271.0937,0.00034191,5.159e-05,0.0,0 STARLINK-3779,1 52281U 22041W   24192.05222892  .00005159  00000-0  34191-3 0  9996,2 52281  53.2186 316.9132 0001347  89.0210 271.0937 15.08849208123858,6917.852,95.437,540.649,538.785,0.0
52281.0,STARLINK-3779,PAYLOAD,2024-07-10 09:12:08,15.08838011,0.0001291,53.2182,315.4275,94.5477,265.5662,0.00011168,1.49e-05,0.0,0 STARLINK-3779,1 52281U 22041W   24192.38343323  .00001490  00000-0  11168-3 0  9998,2 52281  53.2182 315.4275 0001291  94.5477 265.5662 15.08838011123909,6917.886,95.438,540.645,538.858,0.0
52281.0,STARLINK-3779,PAYLOAD,2024-07-10 17:09:04,15.08845514,0.0001496,53.2174,313.9397,88.5555,271.5609,0.00043597,6.658e-05,0.0,0 STARLINK-3779,1 52281U 22041W   24192.71463324  .00006658  00000-0  43597-3 0  9991,2 52281  53.2174 313.9397 0001496  88.5555 271.5609 15.08845514122739,6917.864,95.437,540.763,538.694,0.0
52281.0,STARLINK-3779,PAYLOAD,2024-07-11 13:49:05,15.0884293,0.0001238,53.217,310.073,91.0448,269.0686,0.00017023,2.423e-05,0.0,0 STARLINK-3779,1 52281U 22041W   24193.57575243  .00002423  00000-0  17023-3 0  9991,2 52281  53.2170 310.0730 0001238  91.0448 269.0686 15.08842930122868,6917.871,95.437,540.593,538.88,0.0
52281.0,STARLINK-3779,PAYLOAD,2024-07-11 16:59:51,15.08844762,0.0001415,53.218,309.4781,85.3267,274.7887,0.0002318,3.404e-05,0.0,0 STARLINK-3779,1 52281U 22041W   24193.70823272  .00003404  00000-0  23180-3 0  9995,2 52281  53.2180 309.4781 0001415  85.3267 274.7887 15.08844762124109,6917.866,95.437,540.71,538.752,0.0
52281.0,STARLINK-3779,PAYLOAD,2024-07-12 13:39:52,15.0883543,0.0001196,53.2155,305.6131,84.5647,275.5482,-6.1632e-08,-2.89e-06,0.0,0 STARLINK-3779,1 52281U 22041W   24194.56935523 -.00000289  00000-0 -61632-7 0  9991,2 52281  53.2155 305.6131 0001196  84.5647 275.5482 15.08835430124233,6917.894,95.438,540.587,538.932,0.0
52281.0,STARLINK-3779,PAYLOAD,2024-07-12 15:15:15,15.08841575,0.0001307,53.2158,305.3153,86.7451,273.3691,0.00015693,2.211e-05,0.0,0 STARLINK-3779,1 52281U 22041W   24194.63559375  .00002211  00000-0  15693-3 0  9993,2 52281  53.2158 305.3153 0001307  86.7451 273.3691 15.08841575123029,6917.876,95.437,540.645,538.836,0.0
52281.0,STARLINK-3779,PAYLOAD,2024-07-13 00:47:33,15.08851967,0.0001324,53.2162,303.5306,88.631,271.4834,0.00053818,8.29e-05,0.0,0 STARLINK-3779,1 52281U 22041W   24195.03303130  .00008290  00000-0  53818-3 0  9998,2 52281  53.2162 303.5306 0001324  88.6310 271.4834 15.08851967124304,6917.844,95.437,540.625,538.793,0.0
52281.0,STARLINK-3779,PAYLOAD,2024-07-13 13:30:39,15.08843987,0.0001408,53.2165,301.1511,97.6712,262.444,0.00039489,6.003e-05,0.0,0 STARLINK-3779,1 52281U 22041W   24195.56295498  .00006003  00000-0  39489-3 0  9991,2 52281  53.2165 301.1511 0001408  97.6712 262.4440 15.08843987124382,6917.868,95.437,540.707,538.759,0.0
52281.0,STARLINK-3779,PAYLOAD,2024-07-14 13:21:26,15.08852134,0.0001475,53.2161,296.6913,84.8101,275.306,0.00056431,8.707e-05,0.0,0 STARLINK-3779,1 52281U 22041W   24196.55655407  .00008707  00000-0  56431-3 0  9990,2 52281  53.2161 296.6913 0001475  84.8101 275.3060 15.08852134123313,6917.843,95.437,540.729,538.688,0.0
52281.0,STARLINK-3779,PAYLOAD,2024-07-15 13:12:13,15.0883717,0.0001263,53.2163,292.2298,88.6289,271.4848,9.4456e-05,1.216e-05,0.0,0 STARLINK-3779,1 52281U 22041W   24197.55015238  .00001216  00000-0  94456-4 0  9991,2 52281  53.2163 292.2298 0001263  88.6289 271.4848 15.08837170124682,6917.889,95.438,540.628,538.88,0.0
52281.0,STARLINK-3779,PAYLOAD,2024-07-16 11:27:37,15.08843272,0.0001287,53.2171,288.0683,90.4209,269.6931,0.00076396,0.00011892,0.0,0 STARLINK-3779,1 52281U 22041W   24198.47751895  .00011892  00000-0  76396-3 0  9992,2 52281  53.2171 288.0683 0001287  90.4209 269.6931 15.08843272123604,6917.87,95.437,540.626,538.845,0.0
52281.0,STARLINK-3779,PAYLOAD,2024-07-17 12:53:47,15.0883977,0.0001226,53.2164,283.3101,91.0388,269.0744,0.00017145,2.442e-05,0.0,0 STARLINK-3779,1 52281U 22041W   24199.53736000  .00002442  00000-0  17145-3 0  9999,2 52281  53.2164 283.3101 0001226  91.0388 269.0744 15.08839770124983,6917.881,95.438,540.594,538.898,0.0
52281.0,STARLINK-3779,PAYLOAD,2024-07-17 22:26:06,15.08854534,0.0001198,53.2163,281.5224,73.2903,286.8221,0.00045664,6.99e-05,0.0,0 STARLINK-3779,1 52281U 22041W   24199.93479484  .00006990  00000-0  45664-3 0  9992,2 52281  53.2163 281.5224 0001198  73.2903 286.8221 15.08854534123825,6917.836,95.437,540.53,538.872,0.0
52281.0,STARLINK-3779,PAYLOAD,2024-07-18 12:44:35,15.08836705,0.000134,53.2167,278.8503,96.3728,263.7416,5.6297e-05,6.08e-06,0.0,0 STARLINK-3779,1 52281U 22041W   24200.53096424  .00000608  00000-0  56297-4 0  9995,2 52281  53.2167 278.8503 0001340  96.3728 263.7416 15.08836705125134,6917.89,95.438,540.682,538.828,0.0
52281.0,STARLINK-3779,PAYLOAD,2024-07-19 12:35:22,15.08845711,0.0001336,53.2161,274.3897,88.3874,271.7272,0.00035701,5.399e-05,0.0,0 STARLINK-3779,1 52281U 22041W   24201.52456535  .00005399  00000-0  35701-3 0  9996,2 52281  53.2161 274.3897 0001336  88.3874 271.7272 15.08845711124060,6917.863,95.437,540.652,538.804,0.0
52281.0,STARLINK-3779,PAYLOAD,2024-07-19 22:07:40,15.08857508,0.0001377,53.2166,272.6041,88.4136,271.7014,0.00078389,0.00012216,0.0,0 STARLINK-3779,1 52281U 22041W   24201.92200011  .00012216  00000-0  78389-3 0  9991,2 52281  53.2166 272.6041 0001377  88.4136 271.7014 15.08857508124122,6917.827,95.436,540.644,538.739,0.0
52281.0,STARLINK-3779,PAYLOAD,2024-07-20 10:50:46,15.08844412,0.0001177,53.2156,270.2268,78.6681,281.4443,0.00011664,1.569e-05,0.0,0 STARLINK-3779,1 52281U 22041W   24202.45192178  .00001569  00000-0  11664-3 0  9996,2 52281  53.2156 270.2268 0001177  78.6681 281.4443 15.08844412125428,6917.867,95.437,540.546,538.918,0.0
52281.0,STARLINK-3779,PAYLOAD,2024-07-20 21:58:27,15.08857189,0.0001363,53.2147,268.1432,83.9052,276.2095,0.00089263,0.00013953,0.0,0 STARLINK-3779,1 52281U 22041W   24202.91559790  .00013953  00000-0  89263-3 0  9994,2 52281  53.2147 268.1432 0001363  83.9052 276.2095 15.08857189124277,6917.828,95.436,540.636,538.75,0.0
52281.0,STARLINK-3779,PAYLOAD,2024-07-21 10:41:33,15.08835733,0.0001401,53.2156,265.7651,86.2584,273.8568,0.0004778,7.324e-05,0.0,0 STARLINK-3779,1 52281U 22041W   24203.44552336  .00007324  00000-0  47780-3 0  9995,2 52281  53.2156 265.7651 0001401  86.2584 273.8568 15.08835733125575,6917.893,95.438,540.728,538.789,0.0
52281.0,STARLINK-3779,PAYLOAD,2024-07-22 10:32:20,15.08846525,0.000135,53.2151,261.3029,98.8996,261.2149,0.00072171,0.00011219,0.0,0 STARLINK-3779,1 52281U 22041W   24204.43912640  .00011219  00000-0  72171-3 0  9993,2 52281  53.2151 261.3029 0001350  98.8996 261.2149 15.08846525125724,6917.86,95.437,540.659,538.792,0.0
52281.0,STARLINK-3779,PAYLOAD,2024-07-22 13:43:06,15.08848892,0.0001349,53.2149,260.7091,94.2854,265.8292,0.00071302,0.00011081,0.0,0 STARLINK-3779,1 52281U 22041W   24204.57160618  .00011081  00000-0  71302-3 0  9990,2 52281  53.2149 260.7091 0001349  94.2854 265.8292 15.08848892124529,6917.853,95.437,540.651,538.785,0.0
52281.0,STARLINK-3779,PAYLOAD,2024-07-23 10:23:07,15.08847968,0.0001363,53.215,256.8423,87.0449,273.0699,0.00028516,4.254e-05,0.0,0 STARLINK-3779,1 52281U 22041W   24205.43272376  .00004254  00000-0  28516-3 0  9994,2 52281  53.2150 256.8423 0001363  87.0449 273.0699 15.08847968125876,6917.856,95.437,540.664,538.778,0.0
52281.0,STARLINK-3779,PAYLOAD,2024-07-24 03:52:21,15.08840542,0.0001429,53.2147,253.5717,95.6182,264.4973,2.5665e-05,1.21e-06,0.0,0 STARLINK-3779,1 52281U 22041W   24206.16136438  .00000121  00000-0  25665-4 0  9995,2 52281  53.2147 253.5717 0001429  95.6182 264.4973 15.08840542125986,6917.879,95.438,540.732,538.755,0.0
52281.0,STARLINK-3779,PAYLOAD,2024-07-24 08:38:31,15.08833502,0.0001391,53.2152,252.6789,100.3211,259.7938,-5.748e-05,-1.202e-05,0.0,0 STARLINK-3779,1 52281U 22041W   24206.36008870 -.00001202  00000-0 -57480-4 0  9998,2 52281  53.2152 252.6789 0001391 100.3211 259.7938 15.08833502126017,6917.9,95.438,540.728,538.803,0.0
52281.0,STARLINK-3779,PAYLOAD,2024-07-25 06:53:55,15.08838131,0.0001373,53.2148,248.5153,92.2583,267.8567,5.3212e-05,5.59e-06,0.0,0 STARLINK-3779,1 52281U 22041W   24207.28744842  .00000559  00000-0  53212-4 0  9997,2 52281  53.2148 248.5153 0001373  92.2583 267.8567 15.08838131124932,6917.886,95.438,540.701,538.801,0.0
